<?xml version="1.0" encoding="UTF-8"?>
<ndm xmlns:xsi="https://www.w3.org/2001/XMLSchema-instance" xsi:noNamespaceSchemaLocation="https://sanaregistry.org/r/ndmxml/ndmxml-1.0-master.xsd">
<omm id="CCSDS_OMM_VERS" version="2.0">
<header><CREATION_DATE/><ORIGINATOR/></header><body><segment><metadata><OBJECT_NAME>ENDUROSAT ONE</OBJECT_NAME><OBJECT_ID>1998-067NZ</OBJECT_ID><CENTER_NAME>EARTH</CENTER_NAME><REF_FRAME>TEME</REF_FRAME><TIME_SYSTEM>UTC</TIME_SYSTEM><MEAN_ELEMENT_THEORY>SGP4</MEAN_ELEMENT_THEORY></metadata><data><meanElements><EPOCH>2020-06-25T10:48:25.791264</EPOCH><MEAN_MOTION>15.82296719</MEAN_MOTION><ECCENTRICITY>.0002222</ECCENTRICITY><INCLINATION>51.6319</INCLINATION><RA_OF_ASC_NODE>237.2730</RA_OF_ASC_NODE><ARG_OF_PERICENTER>58.6684</ARG_OF_PERICENTER><MEAN_ANOMALY>301.4536</MEAN_ANOMALY></meanElements><tleParameters><EPHEMERIS_TYPE>0</EPHEMERIS_TYPE><CLASSIFICATION_TYPE>U</CLASSIFICATION_TYPE><NORAD_CAT_ID>43551</NORAD_CAT_ID><ELEMENT_SET_NO>999</ELEMENT_SET_NO><REV_AT_EPOCH>11164</REV_AT_EPOCH><BSTAR>.18150E-3</BSTAR><MEAN_MOTION_DOT>3.7794E-4</MEAN_MOTION_DOT><MEAN_MOTION_DDOT>0</MEAN_MOTION_DDOT></tleParameters></data></segment></body></omm>
<omm id="CCSDS_OMM_VERS" version="2.0">
<header><CREATION_DATE/><ORIGINATOR/></header><body><segment><metadata><OBJECT_NAME>EQUISAT</OBJECT_NAME><OBJECT_ID>1998-067PA</OBJECT_ID><CENTER_NAME>EARTH</CENTER_NAME><REF_FRAME>TEME</REF_FRAME><TIME_SYSTEM>UTC</TIME_SYSTEM><MEAN_ELEMENT_THEORY>SGP4</MEAN_ELEMENT_THEORY></metadata><data><meanElements><EPOCH>2020-06-25T11:30:12.833280</EPOCH><MEAN_MOTION>15.74746314</MEAN_MOTION><ECCENTRICITY>.0002819</ECCENTRICITY><INCLINATION>51.6324</INCLINATION><RA_OF_ASC_NODE>247.3958</RA_OF_ASC_NODE><ARG_OF_PERICENTER>106.6976</ARG_OF_PERICENTER><MEAN_ANOMALY>253.4333</MEAN_ANOMALY></meanElements><tleParameters><EPHEMERIS_TYPE>0</EPHEMERIS_TYPE><CLASSIFICATION_TYPE>U</CLASSIFICATION_TYPE><NORAD_CAT_ID>43552</NORAD_CAT_ID><ELEMENT_SET_NO>999</ELEMENT_SET_NO><REV_AT_EPOCH>11147</REV_AT_EPOCH><BSTAR>.12877E-3</BSTAR><MEAN_MOTION_DOT>1.876E-4</MEAN_MOTION_DOT><MEAN_MOTION_DDOT>0</MEAN_MOTION_DDOT></tleParameters></data></segment></body></omm>
<omm id="CCSDS_OMM_VERS" version="2.0">
<header><CREATION_DATE/><ORIGINATOR/></header><body><segment><metadata><OBJECT_NAME>RADSAT-G</OBJECT_NAME><OBJECT_ID>1998-067PB</OBJECT_ID><CENTER_NAME>EARTH</CENTER_NAME><REF_FRAME>TEME</REF_FRAME><TIME_SYSTEM>UTC</TIME_SYSTEM><MEAN_ELEMENT_THEORY>SGP4</MEAN_ELEMENT_THEORY></metadata><data><meanElements><EPOCH>2020-06-25T11:54:57.619872</EPOCH><MEAN_MOTION>15.69743183</MEAN_MOTION><ECCENTRICITY>.0004266</ECCENTRICITY><INCLINATION>51.6394</INCLINATION><RA_OF_ASC_NODE>255.9583</RA_OF_ASC_NODE><ARG_OF_PERICENTER>107.9992</ARG_OF_PERICENTER><MEAN_ANOMALY>252.1471</MEAN_ANOMALY></meanElements><tleParameters><EPHEMERIS_TYPE>0</EPHEMERIS_TYPE><CLASSIFICATION_TYPE>U</CLASSIFICATION_TYPE><NORAD_CAT_ID>43553</NORAD_CAT_ID><ELEMENT_SET_NO>999</ELEMENT_SET_NO><REV_AT_EPOCH>11141</REV_AT_EPOCH><BSTAR>.95060E-4</BSTAR><MEAN_MOTION_DOT>1.0975E-4</MEAN_MOTION_DOT><MEAN_MOTION_DDOT>0</MEAN_MOTION_DDOT></tleParameters></data></segment></body></omm>
<omm id="CCSDS_OMM_VERS" version="2.0">
<header><CREATION_DATE/><ORIGINATOR/></header><body><segment><metadata><OBJECT_NAME>1998-067PC</OBJECT_NAME><OBJECT_ID>1998-067PC</OBJECT_ID><CENTER_NAME>EARTH</CENTER_NAME><REF_FRAME>TEME</REF_FRAME><TIME_SYSTEM>UTC</TIME_SYSTEM><MEAN_ELEMENT_THEORY>SGP4</MEAN_ELEMENT_THEORY></metadata><data><meanElements><EPOCH>2020-06-25T09:36:55.425600</EPOCH><MEAN_MOTION>15.84895561</MEAN_MOTION><ECCENTRICITY>.0002241</ECCENTRICITY><INCLINATION>51.6281</INCLINATION><RA_OF_ASC_NODE>234.6251</RA_OF_ASC_NODE><ARG_OF_PERICENTER>46.5555</ARG_OF_PERICENTER><MEAN_ANOMALY>313.5635</MEAN_ANOMALY></meanElements><tleParameters><EPHEMERIS_TYPE>0</EPHEMERIS_TYPE><CLASSIFICATION_TYPE>U</CLASSIFICATION_TYPE><NORAD_CAT_ID>43554</NORAD_CAT_ID><ELEMENT_SET_NO>999</ELEMENT_SET_NO><REV_AT_EPOCH>11121</REV_AT_EPOCH><BSTAR>.19807E-3</BSTAR><MEAN_MOTION_DOT>4.6841E-4</MEAN_MOTION_DOT><MEAN_MOTION_DDOT>0</MEAN_MOTION_DDOT></tleParameters></data></segment></body></omm>
<omm id="CCSDS_OMM_VERS" version="2.0">
<header><CREATION_DATE/><ORIGINATOR/></header><body><segment><metadata><OBJECT_NAME>AEROCUBE 12A</OBJECT_NAME><OBJECT_ID>2018-046C</OBJECT_ID><CENTER_NAME>EARTH</CENTER_NAME><REF_FRAME>TEME</REF_FRAME><TIME_SYSTEM>UTC</TIME_SYSTEM><MEAN_ELEMENT_THEORY>SGP4</MEAN_ELEMENT_THEORY></metadata><data><meanElements><EPOCH>2020-06-25T09:45:04.251744</EPOCH><MEAN_MOTION>15.29827132</MEAN_MOTION><ECCENTRICITY>.0007941</ECCENTRICITY><INCLINATION>51.6432</INCLINATION><RA_OF_ASC_NODE>67.3451</RA_OF_ASC_NODE><ARG_OF_PERICENTER>328.8887</ARG_OF_PERICENTER><MEAN_ANOMALY>31.1622</MEAN_ANOMALY></meanElements><tleParameters><EPHEMERIS_TYPE>0</EPHEMERIS_TYPE><CLASSIFICATION_TYPE>U</CLASSIFICATION_TYPE><NORAD_CAT_ID>43556</NORAD_CAT_ID><ELEMENT_SET_NO>999</ELEMENT_SET_NO><REV_AT_EPOCH>10859</REV_AT_EPOCH><BSTAR>.16605E-4</BSTAR><MEAN_MOTION_DOT>1.24E-6</MEAN_MOTION_DOT><MEAN_MOTION_DDOT>0</MEAN_MOTION_DDOT></tleParameters></data></segment></body></omm>
<omm id="CCSDS_OMM_VERS" version="2.0">
<header><CREATION_DATE/><ORIGINATOR/></header><body><segment><metadata><OBJECT_NAME>AEROCUBE 12B</OBJECT_NAME><OBJECT_ID>2018-046D</OBJECT_ID><CENTER_NAME>EARTH</CENTER_NAME><REF_FRAME>TEME</REF_FRAME><TIME_SYSTEM>UTC</TIME_SYSTEM><MEAN_ELEMENT_THEORY>SGP4</MEAN_ELEMENT_THEORY></metadata><data><meanElements><EPOCH>2020-06-25T09:40:42.661920</EPOCH><MEAN_MOTION>15.29539668</MEAN_MOTION><ECCENTRICITY>.0007974</ECCENTRICITY><INCLINATION>51.6433</INCLINATION><RA_OF_ASC_NODE>68.0626</RA_OF_ASC_NODE><ARG_OF_PERICENTER>328.4643</ARG_OF_PERICENTER><MEAN_ANOMALY>31.5858</MEAN_ANOMALY></meanElements><tleParameters><EPHEMERIS_TYPE>0</EPHEMERIS_TYPE><CLASSIFICATION_TYPE>U</CLASSIFICATION_TYPE><NORAD_CAT_ID>43557</NORAD_CAT_ID><ELEMENT_SET_NO>999</ELEMENT_SET_NO><REV_AT_EPOCH>10853</REV_AT_EPOCH><BSTAR>.11549E-4</BSTAR><MEAN_MOTION_DOT>-2.6E-7</MEAN_MOTION_DOT><MEAN_MOTION_DDOT>0</MEAN_MOTION_DDOT></tleParameters></data></segment></body></omm>
<omm id="CCSDS_OMM_VERS" version="2.0">
<header><CREATION_DATE/><ORIGINATOR/></header><body><segment><metadata><OBJECT_NAME>LEMUR-2-VU</OBJECT_NAME><OBJECT_ID>2018-046E</OBJECT_ID><CENTER_NAME>EARTH</CENTER_NAME><REF_FRAME>TEME</REF_FRAME><TIME_SYSTEM>UTC</TIME_SYSTEM><MEAN_ELEMENT_THEORY>SGP4</MEAN_ELEMENT_THEORY></metadata><data><meanElements><EPOCH>2020-06-25T13:24:54.626976</EPOCH><MEAN_MOTION>15.31100093</MEAN_MOTION><ECCENTRICITY>.0007250</ECCENTRICITY><INCLINATION>51.6416</INCLINATION><RA_OF_ASC_NODE>63.2056</RA_OF_ASC_NODE><ARG_OF_PERICENTER>333.8317</ARG_OF_PERICENTER><MEAN_ANOMALY>26.2296</MEAN_ANOMALY></meanElements><tleParameters><EPHEMERIS_TYPE>0</EPHEMERIS_TYPE><CLASSIFICATION_TYPE>U</CLASSIFICATION_TYPE><NORAD_CAT_ID>43558</NORAD_CAT_ID><ELEMENT_SET_NO>999</ELEMENT_SET_NO><REV_AT_EPOCH>10865</REV_AT_EPOCH><BSTAR>.10043E-3</BSTAR><MEAN_MOTION_DOT>2.698E-5</MEAN_MOTION_DOT><MEAN_MOTION_DDOT>0</MEAN_MOTION_DDOT></tleParameters></data></segment></body></omm>
<omm id="CCSDS_OMM_VERS" version="2.0">
<header><CREATION_DATE/><ORIGINATOR/></header><body><segment><metadata><OBJECT_NAME>LEMUR-2-ALEXANDER</OBJECT_NAME><OBJECT_ID>2018-046F</OBJECT_ID><CENTER_NAME>EARTH</CENTER_NAME><REF_FRAME>TEME</REF_FRAME><TIME_SYSTEM>UTC</TIME_SYSTEM><MEAN_ELEMENT_THEORY>SGP4</MEAN_ELEMENT_THEORY></metadata><data><meanElements><EPOCH>2020-06-25T09:24:05.984352</EPOCH><MEAN_MOTION>15.31244765</MEAN_MOTION><ECCENTRICITY>.0007260</ECCENTRICITY><INCLINATION>51.6416</INCLINATION><RA_OF_ASC_NODE>63.6025</RA_OF_ASC_NODE><ARG_OF_PERICENTER>334.0587</ARG_OF_PERICENTER><MEAN_ANOMALY>26.0029</MEAN_ANOMALY></meanElements><tleParameters><EPHEMERIS_TYPE>0</EPHEMERIS_TYPE><CLASSIFICATION_TYPE>U</CLASSIFICATION_TYPE><NORAD_CAT_ID>43559</NORAD_CAT_ID><ELEMENT_SET_NO>999</ELEMENT_SET_NO><REV_AT_EPOCH>10841</REV_AT_EPOCH><BSTAR>.48946E-4</BSTAR><MEAN_MOTION_DOT>1.132E-5</MEAN_MOTION_DOT><MEAN_MOTION_DDOT>0</MEAN_MOTION_DDOT></tleParameters></data></segment></body></omm>

</ndm>
