ENDUROSAT ONE           
1 43551U 98067NZ  20177.45029851  .00037794  00000-0  18150-3 0  9997
2 43551  51.6319 237.2730 0002222  58.6684 301.4536 15.82296719111649
EQUISAT                 
1 43552U 98067PA  20177.47931520  .00018760  00000-0  12877-3 0  9997
2 43552  51.6324 247.3958 0002819 106.6976 253.4333 15.74746314111474
RADSAT-G                
1 43553U 98067PB  20177.49650023  .00010975  00000-0  95060-4 0  9992
2 43553  51.6394 255.9583 0004266 107.9992 252.1471 15.69743183111419
1998-067PC              
1 43554U 98067PC  20177.40064150  .00046841  00000-0  19807-3 0  9999
2 43554  51.6281 234.6251 0002241  46.5555 313.5635 15.84895561111212
AEROCUBE 12A            
1 43556U 18046C   20177.40629921  .00000124  00000-0  16605-4 0  9991
2 43556  51.6432  67.3451 0007941 328.8887  31.1622 15.29827132108595
AEROCUBE 12B            
1 43557U 18046D   20177.40327155 -.00000026  00000-0  11549-4 0  9990
2 43557  51.6433  68.0626 0007974 328.4643  31.5858 15.29539668108534
LEMUR-2-VU              
1 43558U 18046E   20177.55896559  .00002698  00000-0  10043-3 0  9999
2 43558  51.6416  63.2056 0007250 333.8317  26.2296 15.31100093108654
LEMUR-2-ALEXANDER       
1 43559U 18046F   20177.39173593  .00001132  00000-0  48946-4 0  9994
2 43559  51.6416  63.6025 0007260 334.0587  26.0029 15.31244765108419
